{
"type": "FeatureCollection",
"name": "hoh_watershed",
"crs": { "type": "name", "properties": { "name": "urn:ogc:def:crs:OGC:1.3:CRS84" } },
"features": [
{ "type": "Feature", "properties": { "identifier": "USGS-12041200" }, "geometry": { "type": "Polygon", "coordinates": [ [ [ -124.171592642, 47.747946762 ], [ -124.177167977, 47.749506625 ], [ -124.189179932, 47.744553376 ], [ -124.203876721, 47.753107427 ], [ -124.219403333, 47.748649664 ], [ -124.22758397, 47.751419273 ], [ -124.229054789, 47.75257462 ], [ -124.228010698, 47.755249979 ], [ -124.2387114, 47.768008779 ], [ -124.234516679, 47.770197304 ], [ -124.226903549, 47.77018447 ], [ -124.224025592, 47.772236197 ], [ -124.215917802, 47.772782094 ], [ -124.218733877, 47.776862397 ], [ -124.227987122, 47.782496105 ], [ -124.240918791, 47.783316282 ], [ -124.257437789, 47.777233658 ], [ -124.266843707, 47.779304006 ], [ -124.271546125, 47.784722737 ], [ -124.263248463, 47.788020886 ], [ -124.259855849, 47.791998981 ], [ -124.260406258, 47.794629072 ], [ -124.266852079, 47.803483145 ], [ -124.278491069, 47.812268827 ], [ -124.281384711, 47.812230671 ], [ -124.286316443, 47.820482018 ], [ -124.289836212, 47.832923535 ], [ -124.284873313, 47.849291076 ], [ -124.275720789, 47.850871493 ], [ -124.273344189, 47.854582363 ], [ -124.262489318, 47.859577307 ], [ -124.257950496, 47.859414313 ], [ -124.248877935, 47.863119806 ], [ -124.236742774, 47.861109821 ], [ -124.218615557, 47.861490152 ], [ -124.200901446, 47.853534992 ], [ -124.191814477, 47.851901501 ], [ -124.184498715, 47.853004437 ], [ -124.171971829, 47.85071169 ], [ -124.168501384, 47.851773252 ], [ -124.16198903, 47.848404003 ], [ -124.159823299, 47.845608378 ], [ -124.151365555, 47.842272371 ], [ -124.142596534, 47.841258986 ], [ -124.129251027, 47.845106607 ], [ -124.113327496, 47.842967772 ], [ -124.102431461, 47.845366144 ], [ -124.097268671, 47.842177814 ], [ -124.085534153, 47.845280567 ], [ -124.074935186, 47.840573436 ], [ -124.06908323, 47.84252789 ], [ -124.062959548, 47.840957288 ], [ -124.05587404, 47.841801078 ], [ -124.052198182, 47.840407762 ], [ -124.050528843, 47.837538895 ], [ -124.045622657, 47.83729037 ], [ -124.041465568, 47.840349872 ], [ -124.034371018, 47.841901478 ], [ -124.031027658, 47.847326814 ], [ -124.034908387, 47.852021084 ], [ -124.035287784, 47.85705638 ], [ -124.017315703, 47.85616222 ], [ -124.008328388, 47.860947626 ], [ -124.002902145, 47.857622833 ], [ -123.996650119, 47.857118675 ], [ -123.988708431, 47.862035834 ], [ -123.975769687, 47.863822384 ], [ -123.971030788, 47.868236015 ], [ -123.956681743, 47.873535648 ], [ -123.948098139, 47.874007267 ], [ -123.927570493, 47.880931962 ], [ -123.918469342, 47.882398017 ], [ -123.907040327, 47.881444116 ], [ -123.894885719, 47.886418487 ], [ -123.882826522, 47.882660946 ], [ -123.871255926, 47.883348458 ], [ -123.865978548, 47.882158737 ], [ -123.859508688, 47.886333814 ], [ -123.858232008, 47.88905816 ], [ -123.855405134, 47.889475771 ], [ -123.853619774, 47.894649502 ], [ -123.814307162, 47.892239468 ], [ -123.799098852, 47.894517452 ], [ -123.789724497, 47.902549129 ], [ -123.782017818, 47.902051499 ], [ -123.777723416, 47.905445377 ], [ -123.753588619, 47.907876404 ], [ -123.749963744, 47.906604631 ], [ -123.742186008, 47.908769345 ], [ -123.729374085, 47.906088724 ], [ -123.719725014, 47.909686359 ], [ -123.717948291, 47.906486411 ], [ -123.706098421, 47.901476626 ], [ -123.702277567, 47.902641375 ], [ -123.695593145, 47.899332694 ], [ -123.686657034, 47.897932999 ], [ -123.681668877, 47.89874682 ], [ -123.670303251, 47.890871778 ], [ -123.659819664, 47.891333379 ], [ -123.652578636, 47.895901163 ], [ -123.648995853, 47.894363151 ], [ -123.645324759, 47.890098199 ], [ -123.629602846, 47.885712964 ], [ -123.619239254, 47.873335939 ], [ -123.613341723, 47.869862645 ], [ -123.59558127, 47.870085095 ], [ -123.585896869, 47.863935066 ], [ -123.578485049, 47.861372557 ], [ -123.57256868, 47.853083774 ], [ -123.57142119, 47.845699767 ], [ -123.568389686, 47.844277294 ], [ -123.567799188, 47.841529854 ], [ -123.569014149, 47.837743999 ], [ -123.572628247, 47.835610939 ], [ -123.568917204, 47.828163858 ], [ -123.573041566, 47.825346392 ], [ -123.572708816, 47.820075005 ], [ -123.577101039, 47.814480127 ], [ -123.586038884, 47.812159823 ], [ -123.588383844, 47.808875068 ], [ -123.589260004, 47.805698082 ], [ -123.586676562, 47.795573688 ], [ -123.60072194, 47.796782214 ], [ -123.611379673, 47.794229498 ], [ -123.618459352, 47.799006521 ], [ -123.640023683, 47.795112108 ], [ -123.656528447, 47.796053251 ], [ -123.663990649, 47.793020557 ], [ -123.666018431, 47.790942205 ], [ -123.666395554, 47.78720462 ], [ -123.669979692, 47.785453995 ], [ -123.675472838, 47.785293309 ], [ -123.686303881, 47.780568352 ], [ -123.691784331, 47.781714315 ], [ -123.692305562, 47.780202262 ], [ -123.70825902, 47.776548083 ], [ -123.715413722, 47.767507631 ], [ -123.723594681, 47.761560531 ], [ -123.723517036, 47.757603301 ], [ -123.729740828, 47.756992174 ], [ -123.742535429, 47.750855709 ], [ -123.74919283, 47.750905485 ], [ -123.751868984, 47.747380465 ], [ -123.755694268, 47.746493086 ], [ -123.763419168, 47.740631096 ], [ -123.775162857, 47.740167822 ], [ -123.778958408, 47.733709632 ], [ -123.785446151, 47.728242143 ], [ -123.809285655, 47.72064688 ], [ -123.830931564, 47.72554773 ], [ -123.821974612, 47.731338003 ], [ -123.826839167, 47.735075658 ], [ -123.82669444, 47.736641289 ], [ -123.833389367, 47.739076412 ], [ -123.836331466, 47.743452593 ], [ -123.843134541, 47.740536174 ], [ -123.846122751, 47.741254895 ], [ -123.854739832, 47.739047201 ], [ -123.865196309, 47.741182021 ], [ -123.87559576, 47.73627115 ], [ -123.898143371, 47.731246159 ], [ -123.900583903, 47.733881007 ], [ -123.906787905, 47.734851891 ], [ -123.910156145, 47.73759638 ], [ -123.916991936, 47.749492719 ], [ -123.922760459, 47.748798623 ], [ -123.935569041, 47.75302882 ], [ -123.942216145, 47.750231672 ], [ -123.947636957, 47.757240905 ], [ -123.961040767, 47.760780946 ], [ -123.964757735, 47.764587233 ], [ -123.972075786, 47.758606673 ], [ -123.977319907, 47.758724188 ], [ -123.981921071, 47.756482459 ], [ -123.996382913, 47.76139208 ], [ -124.00358894, 47.761205053 ], [ -124.01174357, 47.755402966 ], [ -124.019060323, 47.757859512 ], [ -124.032578693, 47.752776963 ], [ -124.037267615, 47.753915843 ], [ -124.055297061, 47.750999598 ], [ -124.0599383, 47.747085069 ], [ -124.066891955, 47.748768594 ], [ -124.072923581, 47.745073353 ], [ -124.078406645, 47.743807574 ], [ -124.085693327, 47.74670873 ], [ -124.089350653, 47.743459531 ], [ -124.102407721, 47.743635627 ], [ -124.109876403, 47.750671599 ], [ -124.106963219, 47.753819116 ], [ -124.113678227, 47.761073118 ], [ -124.109428528, 47.766450228 ], [ -124.109772567, 47.767978538 ], [ -124.124510438, 47.770286866 ], [ -124.126543573, 47.771280268 ], [ -124.128184869, 47.775737255 ], [ -124.13194324, 47.777967596 ], [ -124.137880694, 47.777239837 ], [ -124.149763041, 47.770695773 ], [ -124.15025816, 47.764728129 ], [ -124.156092162, 47.763503612 ], [ -124.16432074, 47.757708153 ], [ -124.167695214, 47.750659688 ], [ -124.171592642, 47.747946762 ] ] ] } }
]
}
