{
"type": "FeatureCollection",
"name": "lamar_watershed",
"crs": { "type": "name", "properties": { "name": "urn:ogc:def:crs:OGC:1.3:CRS84" } },
"features": [
{ "type": "Feature", "properties": { "identifier": "USGS-06191500" }, "geometry": { "type": "Polygon", "coordinates": [ [ [ -109.98961641, 43.949108112 ], [ -109.999651643, 43.952075122 ], [ -110.002149141, 43.955882095 ], [ -110.000061774, 43.961945668 ], [ -110.001634309, 43.966865656 ], [ -110.017325776, 43.967028699 ], [ -110.018579022, 43.968406886 ], [ -110.019150224, 43.980477952 ], [ -110.024112058, 43.983014259 ], [ -110.024084184, 43.986303135 ], [ -110.033096274, 43.996996051 ], [ -110.031164459, 44.000574056 ], [ -110.035331066, 44.003119564 ], [ -110.043149929, 44.004480759 ], [ -110.05064598, 44.009237605 ], [ -110.057028403, 44.006616248 ], [ -110.061737999, 44.002341535 ], [ -110.070275982, 44.001946702 ], [ -110.079582464, 43.996898282 ], [ -110.086046734, 43.998073515 ], [ -110.092316232, 43.996079659 ], [ -110.108638792, 43.996658094 ], [ -110.113399191, 43.999099517 ], [ -110.127714155, 44.0011044 ], [ -110.135133739, 44.010258034 ], [ -110.147394215, 44.011082243 ], [ -110.158536745, 44.018170926 ], [ -110.161098651, 44.022872948 ], [ -110.161627261, 44.032580062 ], [ -110.175559505, 44.04287729 ], [ -110.175745589, 44.049414421 ], [ -110.180671127, 44.06211258 ], [ -110.178820097, 44.069493136 ], [ -110.18070492, 44.072969715 ], [ -110.176782786, 44.078746262 ], [ -110.181035481, 44.082369882 ], [ -110.189624826, 44.078125917 ], [ -110.198663311, 44.08426272 ], [ -110.195287521, 44.096497686 ], [ -110.201279653, 44.105584074 ], [ -110.203911948, 44.106941573 ], [ -110.202142555, 44.113017669 ], [ -110.19342755, 44.117134507 ], [ -110.19164499, 44.129335492 ], [ -110.185237057, 44.131674776 ], [ -110.184718084, 44.138606838 ], [ -110.187780615, 44.140783821 ], [ -110.194388302, 44.135109673 ], [ -110.201277259, 44.133339963 ], [ -110.20624682, 44.133986632 ], [ -110.205688444, 44.137178354 ], [ -110.208668779, 44.13938503 ], [ -110.205000857, 44.144852863 ], [ -110.208175885, 44.148236664 ], [ -110.212893526, 44.148598904 ], [ -110.21616506, 44.154737173 ], [ -110.215841696, 44.157004429 ], [ -110.212250562, 44.158824451 ], [ -110.207936762, 44.167532118 ], [ -110.205112924, 44.16947655 ], [ -110.200157218, 44.17752277 ], [ -110.192848606, 44.180499166 ], [ -110.184782747, 44.179609423 ], [ -110.179747407, 44.181131907 ], [ -110.180838407, 44.183258728 ], [ -110.188240196, 44.184785723 ], [ -110.203700377, 44.180989667 ], [ -110.206001759, 44.184235177 ], [ -110.206307242, 44.182727777 ], [ -110.216687589, 44.182749237 ], [ -110.235218985, 44.17362374 ], [ -110.236233008, 44.18052669 ], [ -110.230013048, 44.185614001 ], [ -110.230764724, 44.186857592 ], [ -110.254408598, 44.180141721 ], [ -110.258560135, 44.189262745 ], [ -110.269732502, 44.186643939 ], [ -110.274738219, 44.189523829 ], [ -110.279442739, 44.186548045 ], [ -110.28126203, 44.187034767 ], [ -110.284294926, 44.189901427 ], [ -110.284517225, 44.193204233 ], [ -110.294625926, 44.203393861 ], [ -110.29861179, 44.201762614 ], [ -110.300955423, 44.203862751 ], [ -110.316372516, 44.202675783 ], [ -110.313826175, 44.205613517 ], [ -110.314309684, 44.209964294 ], [ -110.321591511, 44.213307413 ], [ -110.323101644, 44.216913109 ], [ -110.322171019, 44.22183965 ], [ -110.330188117, 44.232047809 ], [ -110.335553056, 44.229107667 ], [ -110.33402173, 44.225595675 ], [ -110.340529466, 44.222567329 ], [ -110.344679916, 44.216890724 ], [ -110.348207478, 44.215406615 ], [ -110.362884109, 44.216261201 ], [ -110.377377343, 44.220228845 ], [ -110.390689736, 44.217186861 ], [ -110.386456078, 44.221167511 ], [ -110.387459355, 44.230607195 ], [ -110.385156293, 44.232703395 ], [ -110.379734134, 44.23379939 ], [ -110.374934517, 44.240297952 ], [ -110.382238912, 44.250778812 ], [ -110.380257181, 44.25473301 ], [ -110.380508198, 44.259179996 ], [ -110.390762074, 44.257739451 ], [ -110.385487526, 44.264033018 ], [ -110.388653829, 44.268322024 ], [ -110.382595816, 44.274243521 ], [ -110.373736801, 44.277025706 ], [ -110.374071992, 44.280501164 ], [ -110.367209376, 44.288791871 ], [ -110.361084572, 44.289730213 ], [ -110.355103172, 44.293759379 ], [ -110.361804995, 44.303703077 ], [ -110.362037984, 44.305514613 ], [ -110.359358175, 44.306439821 ], [ -110.359623732, 44.308390351 ], [ -110.364462748, 44.309008783 ], [ -110.377784567, 44.320257701 ], [ -110.384155158, 44.322186348 ], [ -110.391633993, 44.335799227 ], [ -110.395389316, 44.336643321 ], [ -110.39802265, 44.339565799 ], [ -110.403531805, 44.340780297 ], [ -110.408961225, 44.345596741 ], [ -110.430732282, 44.349932121 ], [ -110.4347994, 44.348879507 ], [ -110.433974944, 44.347538685 ], [ -110.436488806, 44.342319446 ], [ -110.441775036, 44.337522769 ], [ -110.453731206, 44.329995412 ], [ -110.464610744, 44.337888125 ], [ -110.47005229, 44.337199856 ], [ -110.474453366, 44.343215031 ], [ -110.48332682, 44.348659348 ], [ -110.485424187, 44.345372854 ], [ -110.489989554, 44.343175439 ], [ -110.48905235, 44.340596061 ], [ -110.491695364, 44.338467816 ], [ -110.496555627, 44.338507132 ], [ -110.508206805, 44.333003609 ], [ -110.513021349, 44.333447342 ], [ -110.519050981, 44.33751103 ], [ -110.521393388, 44.332488185 ], [ -110.535809895, 44.326988698 ], [ -110.538851234, 44.329500188 ], [ -110.548769838, 44.331027948 ], [ -110.55554268, 44.334201819 ], [ -110.555793086, 44.341796887 ], [ -110.567487169, 44.339894306 ], [ -110.57406244, 44.353911991 ], [ -110.578746936, 44.35303567 ], [ -110.579950062, 44.356005864 ], [ -110.588136111, 44.359809166 ], [ -110.586090747, 44.362091855 ], [ -110.597238125, 44.365944661 ], [ -110.598995232, 44.368898395 ], [ -110.596903335, 44.371440778 ], [ -110.601238595, 44.373005208 ], [ -110.606402228, 44.371787732 ], [ -110.605114582, 44.373594389 ], [ -110.607160338, 44.376692889 ], [ -110.60455106, 44.378501907 ], [ -110.607903565, 44.380491908 ], [ -110.612501401, 44.38001252 ], [ -110.612596528, 44.382345408 ], [ -110.610160663, 44.383222285 ], [ -110.613467616, 44.387788421 ], [ -110.615658183, 44.388041154 ], [ -110.619103012, 44.384569753 ], [ -110.625505643, 44.386088022 ], [ -110.626672428, 44.388638735 ], [ -110.63076712, 44.390240778 ], [ -110.626661055, 44.395899345 ], [ -110.632513586, 44.399142846 ], [ -110.63290252, 44.401018728 ], [ -110.644401249, 44.403924285 ], [ -110.653545783, 44.411652733 ], [ -110.659616288, 44.411645191 ], [ -110.666626541, 44.41535535 ], [ -110.663588088, 44.419790158 ], [ -110.665672817, 44.424998095 ], [ -110.662339514, 44.422321331 ], [ -110.652195313, 44.425866931 ], [ -110.64994604, 44.429002678 ], [ -110.647095298, 44.429222573 ], [ -110.64401645, 44.427285686 ], [ -110.641276075, 44.433282382 ], [ -110.642955023, 44.435552091 ], [ -110.639069812, 44.439635057 ], [ -110.638760351, 44.442581486 ], [ -110.636490777, 44.442002356 ], [ -110.628635398, 44.445972764 ], [ -110.625551553, 44.446181702 ], [ -110.6236347, 44.443661316 ], [ -110.616555285, 44.442839597 ], [ -110.616005966, 44.444221155 ], [ -110.618825203, 44.447848926 ], [ -110.615016794, 44.450145066 ], [ -110.615793863, 44.453346038 ], [ -110.626353363, 44.453857822 ], [ -110.626084877, 44.456967889 ], [ -110.618164397, 44.462228415 ], [ -110.618443783, 44.464335954 ], [ -110.623543561, 44.467727938 ], [ -110.623326998, 44.469478373 ], [ -110.621896354, 44.47153432 ], [ -110.616035218, 44.470693632 ], [ -110.609941039, 44.472270164 ], [ -110.608969296, 44.475414208 ], [ -110.614954736, 44.48084203 ], [ -110.633997963, 44.481276836 ], [ -110.634403502, 44.483706921 ], [ -110.639982985, 44.484181068 ], [ -110.639220262, 44.485289465 ], [ -110.647888439, 44.49073363 ], [ -110.63843822, 44.494776598 ], [ -110.640692441, 44.502413358 ], [ -110.63563639, 44.502989371 ], [ -110.623978707, 44.500876338 ], [ -110.622790121, 44.504691873 ], [ -110.619770773, 44.504309934 ], [ -110.61812753, 44.506759821 ], [ -110.609158361, 44.508516116 ], [ -110.60714568, 44.507367085 ], [ -110.595219988, 44.513129468 ], [ -110.593740683, 44.5115723 ], [ -110.585688158, 44.513450481 ], [ -110.587152057, 44.516533755 ], [ -110.580776442, 44.518783583 ], [ -110.582647112, 44.520924791 ], [ -110.580338218, 44.522940702 ], [ -110.581704766, 44.530373689 ], [ -110.578961399, 44.532339473 ], [ -110.576810322, 44.53184809 ], [ -110.5730033, 44.53553497 ], [ -110.569840134, 44.535741338 ], [ -110.563327812, 44.533787729 ], [ -110.554424406, 44.533591089 ], [ -110.552570434, 44.535227535 ], [ -110.553941187, 44.542879515 ], [ -110.546959332, 44.545452723 ], [ -110.542342514, 44.544074389 ], [ -110.535046909, 44.545677575 ], [ -110.556593432, 44.550962495 ], [ -110.558339722, 44.554771059 ], [ -110.56623938, 44.555506043 ], [ -110.570176253, 44.55781119 ], [ -110.570341312, 44.561085682 ], [ -110.567416824, 44.561280531 ], [ -110.566230358, 44.563140843 ], [ -110.572194907, 44.563881776 ], [ -110.572510879, 44.566273168 ], [ -110.575753989, 44.567770985 ], [ -110.573153731, 44.568584982 ], [ -110.578394932, 44.573265445 ], [ -110.582197346, 44.573279349 ], [ -110.58362621, 44.574909593 ], [ -110.589585139, 44.573272173 ], [ -110.590955271, 44.567504466 ], [ -110.593232354, 44.565604661 ], [ -110.599221318, 44.563023373 ], [ -110.602628113, 44.564136315 ], [ -110.603952739, 44.570860348 ], [ -110.613911673, 44.574130754 ], [ -110.614333287, 44.578147008 ], [ -110.617260626, 44.581257754 ], [ -110.6161461, 44.582331424 ], [ -110.621209457, 44.586320249 ], [ -110.620711653, 44.591678442 ], [ -110.627823089, 44.591724342 ], [ -110.630396787, 44.593908338 ], [ -110.619645811, 44.594699463 ], [ -110.620976624, 44.598070518 ], [ -110.626809823, 44.600104839 ], [ -110.630241249, 44.605669627 ], [ -110.634056334, 44.606060981 ], [ -110.635494659, 44.609865288 ], [ -110.641867526, 44.614047976 ], [ -110.642753039, 44.617128619 ], [ -110.645848059, 44.617435262 ], [ -110.645883344, 44.620146642 ], [ -110.634719659, 44.623992239 ], [ -110.627665244, 44.629919967 ], [ -110.621504299, 44.628180145 ], [ -110.614667089, 44.6308174 ], [ -110.601484331, 44.63103963 ], [ -110.601953523, 44.637387268 ], [ -110.597332431, 44.647998627 ], [ -110.592960956, 44.654396686 ], [ -110.587844892, 44.65727529 ], [ -110.587949156, 44.658697055 ], [ -110.596989241, 44.662407138 ], [ -110.591141026, 44.66924028 ], [ -110.593321104, 44.674453615 ], [ -110.597988756, 44.677331804 ], [ -110.595429348, 44.679762231 ], [ -110.599669532, 44.685270875 ], [ -110.596756843, 44.688743334 ], [ -110.590347992, 44.691857863 ], [ -110.584712533, 44.692681687 ], [ -110.58230097, 44.691086315 ], [ -110.582009749, 44.694052047 ], [ -110.577532759, 44.70052312 ], [ -110.582265678, 44.704846447 ], [ -110.578338577, 44.708123193 ], [ -110.574075742, 44.708398489 ], [ -110.570421251, 44.711200972 ], [ -110.561374479, 44.714128424 ], [ -110.560796044, 44.716667742 ], [ -110.557550938, 44.718888213 ], [ -110.557541875, 44.726757801 ], [ -110.554817067, 44.727428141 ], [ -110.548842135, 44.724060768 ], [ -110.546668961, 44.724750367 ], [ -110.545487878, 44.726092659 ], [ -110.546385754, 44.730653244 ], [ -110.543818501, 44.732229351 ], [ -110.533139423, 44.725091305 ], [ -110.528546687, 44.724514098 ], [ -110.52884622, 44.730407316 ], [ -110.527595641, 44.732246863 ], [ -110.529385455, 44.737086906 ], [ -110.538871839, 44.737484255 ], [ -110.533636864, 44.741601229 ], [ -110.541079765, 44.747648979 ], [ -110.531614174, 44.756199021 ], [ -110.532271968, 44.763554034 ], [ -110.558167079, 44.776163778 ], [ -110.56118647, 44.779134558 ], [ -110.556425823, 44.782826796 ], [ -110.567355331, 44.791129562 ], [ -110.574446751, 44.789081385 ], [ -110.576645786, 44.786042193 ], [ -110.580315951, 44.786682282 ], [ -110.585055353, 44.784039439 ], [ -110.592381763, 44.784917967 ], [ -110.595892095, 44.783262813 ], [ -110.602784882, 44.784444038 ], [ -110.611798368, 44.777470308 ], [ -110.612530839, 44.774164545 ], [ -110.616549716, 44.772237684 ], [ -110.62450165, 44.773810289 ], [ -110.627883871, 44.775295571 ], [ -110.628822482, 44.777487643 ], [ -110.634088758, 44.77799098 ], [ -110.635403755, 44.782739568 ], [ -110.64267467, 44.786267475 ], [ -110.649035019, 44.785064711 ], [ -110.649803952, 44.786423305 ], [ -110.647646696, 44.792231174 ], [ -110.64988086, 44.793218431 ], [ -110.650606542, 44.797834015 ], [ -110.645408843, 44.804777093 ], [ -110.643948192, 44.81022492 ], [ -110.656561588, 44.824283668 ], [ -110.656092533, 44.825947215 ], [ -110.653723854, 44.826071965 ], [ -110.65094734, 44.831540538 ], [ -110.651994778, 44.83465414 ], [ -110.658083193, 44.83976899 ], [ -110.657887358, 44.844453693 ], [ -110.66103368, 44.84724118 ], [ -110.66247769, 44.846809227 ], [ -110.6609212, 44.845200588 ], [ -110.662118223, 44.838868125 ], [ -110.664699873, 44.837438142 ], [ -110.672148142, 44.839322495 ], [ -110.672903183, 44.835294066 ], [ -110.679825337, 44.83498061 ], [ -110.685801122, 44.832499904 ], [ -110.691356791, 44.829175719 ], [ -110.692191922, 44.824321133 ], [ -110.694172644, 44.824741436 ], [ -110.699340985, 44.822010485 ], [ -110.697452073, 44.820798122 ], [ -110.699682085, 44.820063588 ], [ -110.697603985, 44.818414046 ], [ -110.698748853, 44.817410643 ], [ -110.705600062, 44.817157832 ], [ -110.708331988, 44.814041859 ], [ -110.712387402, 44.813296842 ], [ -110.712693852, 44.80900989 ], [ -110.716124192, 44.808408503 ], [ -110.715747174, 44.806749894 ], [ -110.717857939, 44.803995462 ], [ -110.720652758, 44.803305572 ], [ -110.722128649, 44.798964723 ], [ -110.720231916, 44.797061148 ], [ -110.7215027, 44.794620244 ], [ -110.718760599, 44.793985426 ], [ -110.716390078, 44.78796883 ], [ -110.723172327, 44.785280662 ], [ -110.722994886, 44.78302156 ], [ -110.726895628, 44.782019279 ], [ -110.727710372, 44.77795951 ], [ -110.743592355, 44.77832433 ], [ -110.74419393, 44.775801909 ], [ -110.73915199, 44.768236047 ], [ -110.738049558, 44.761105664 ], [ -110.74321861, 44.759251482 ], [ -110.748467448, 44.75356586 ], [ -110.750458963, 44.753456542 ], [ -110.762040809, 44.755319859 ], [ -110.762357031, 44.760256683 ], [ -110.766736717, 44.764370058 ], [ -110.768566913, 44.762392728 ], [ -110.77295805, 44.761905455 ], [ -110.774231742, 44.758884074 ], [ -110.768284705, 44.751838733 ], [ -110.768773139, 44.748985766 ], [ -110.777880644, 44.747568799 ], [ -110.791115283, 44.749751661 ], [ -110.794668032, 44.745578061 ], [ -110.803739763, 44.74238083 ], [ -110.806260023, 44.743861974 ], [ -110.805615853, 44.752848008 ], [ -110.81334828, 44.756052424 ], [ -110.819909237, 44.756099256 ], [ -110.816785718, 44.764274573 ], [ -110.833575263, 44.768781667 ], [ -110.833469532, 44.772001703 ], [ -110.839400305, 44.776292847 ], [ -110.844091747, 44.783365976 ], [ -110.844678274, 44.784838031 ], [ -110.842776952, 44.78724659 ], [ -110.851850233, 44.788305091 ], [ -110.855288129, 44.790239424 ], [ -110.859044755, 44.802922052 ], [ -110.865866828, 44.805079887 ], [ -110.871095985, 44.812866587 ], [ -110.877178495, 44.817250977 ], [ -110.880179821, 44.827285371 ], [ -110.876182711, 44.832823764 ], [ -110.88085679, 44.836381288 ], [ -110.883563129, 44.843904157 ], [ -110.882106763, 44.849959862 ], [ -110.87930919, 44.850777101 ], [ -110.873276365, 44.860881086 ], [ -110.870227657, 44.860565541 ], [ -110.880641365, 44.872786122 ], [ -110.882221771, 44.889965693 ], [ -110.879911602, 44.891951929 ], [ -110.88305334, 44.895047529 ], [ -110.882343963, 44.90186871 ], [ -110.884822253, 44.903537805 ], [ -110.885587746, 44.908780711 ], [ -110.8950181, 44.910524452 ], [ -110.894260664, 44.912741153 ], [ -110.903224836, 44.919679971 ], [ -110.900439239, 44.923132336 ], [ -110.900666783, 44.925513875 ], [ -110.90601658, 44.930364184 ], [ -110.908859079, 44.935374858 ], [ -110.908297725, 44.937080508 ], [ -110.901031983, 44.940143514 ], [ -110.900596152, 44.942668713 ], [ -110.897640503, 44.944885386 ], [ -110.893928665, 44.943511972 ], [ -110.88721231, 44.945439164 ], [ -110.883957097, 44.962064565 ], [ -110.886461798, 44.965468858 ], [ -110.879990556, 44.974482029 ], [ -110.886343644, 44.981287951 ], [ -110.884848017, 44.984569251 ], [ -110.881135875, 44.987328493 ], [ -110.869369295, 44.990286664 ], [ -110.855307391, 45.00204451 ], [ -110.846768116, 45.006174578 ], [ -110.848747965, 45.008137302 ], [ -110.847841582, 45.011246902 ], [ -110.839818293, 45.020553588 ], [ -110.840113832, 45.026994252 ], [ -110.841914222, 45.029205361 ], [ -110.837571447, 45.044097144 ], [ -110.836787868, 45.045372104 ], [ -110.833503531, 45.044690684 ], [ -110.831120709, 45.046583909 ], [ -110.827553182, 45.046445615 ], [ -110.828087273, 45.051679776 ], [ -110.823467653, 45.062188077 ], [ -110.823597694, 45.067213595 ], [ -110.818280077, 45.07239373 ], [ -110.819507487, 45.074440939 ], [ -110.814469054, 45.075968976 ], [ -110.810805693, 45.079871023 ], [ -110.80601509, 45.08172942 ], [ -110.800057251, 45.089430009 ], [ -110.804131583, 45.099077311 ], [ -110.800671906, 45.101602326 ], [ -110.806029677, 45.106314555 ], [ -110.810609671, 45.107613464 ], [ -110.813500946, 45.111685588 ], [ -110.808155296, 45.11498753 ], [ -110.812400047, 45.118420082 ], [ -110.812497513, 45.12329627 ], [ -110.799098033, 45.129515616 ], [ -110.789735825, 45.138617266 ], [ -110.782371902, 45.137676968 ], [ -110.775558172, 45.132684194 ], [ -110.753504758, 45.129378237 ], [ -110.743035297, 45.134082783 ], [ -110.734372168, 45.134016026 ], [ -110.723413708, 45.136482616 ], [ -110.713012574, 45.135906763 ], [ -110.709015555, 45.128408586 ], [ -110.706237815, 45.127310607 ], [ -110.695489376, 45.128284722 ], [ -110.692224088, 45.140531941 ], [ -110.688605268, 45.14524934 ], [ -110.683824675, 45.146425731 ], [ -110.679277362, 45.150146821 ], [ -110.668526463, 45.151448104 ], [ -110.664368544, 45.155893453 ], [ -110.664468001, 45.161924525 ], [ -110.66077812, 45.165400382 ], [ -110.657376783, 45.165799434 ], [ -110.650575906, 45.164739812 ], [ -110.641457833, 45.160151349 ], [ -110.627795582, 45.161814247 ], [ -110.623864118, 45.160988002 ], [ -110.616271573, 45.163742688 ], [ -110.61534824, 45.166296869 ], [ -110.612301345, 45.167313734 ], [ -110.607473193, 45.166474243 ], [ -110.60067662, 45.162137793 ], [ -110.593842345, 45.161543905 ], [ -110.591359582, 45.163164892 ], [ -110.590133181, 45.166847825 ], [ -110.582865755, 45.165621588 ], [ -110.577792176, 45.167663815 ], [ -110.572911416, 45.16378749 ], [ -110.571634507, 45.158408086 ], [ -110.573837316, 45.157341485 ], [ -110.567734846, 45.157024646 ], [ -110.560994468, 45.153589823 ], [ -110.554718551, 45.143437676 ], [ -110.551727665, 45.144094195 ], [ -110.549293422, 45.141986769 ], [ -110.542154636, 45.141663579 ], [ -110.537106297, 45.146852314 ], [ -110.536373284, 45.157585063 ], [ -110.535166047, 45.158768586 ], [ -110.530863036, 45.158043112 ], [ -110.531142699, 45.162679379 ], [ -110.53426689, 45.169281957 ], [ -110.533394301, 45.171411876 ], [ -110.521285192, 45.171022605 ], [ -110.51524489, 45.175023193 ], [ -110.508917069, 45.172040788 ], [ -110.503248243, 45.174263992 ], [ -110.496946533, 45.170621658 ], [ -110.493900255, 45.171065308 ], [ -110.488694268, 45.175943956 ], [ -110.490314207, 45.183539849 ], [ -110.489482314, 45.186280015 ], [ -110.484215141, 45.185749124 ], [ -110.476172556, 45.188284924 ], [ -110.470808418, 45.191169607 ], [ -110.469128797, 45.194876557 ], [ -110.466820574, 45.195831127 ], [ -110.45906547, 45.193942008 ], [ -110.455031315, 45.194695171 ], [ -110.449071641, 45.203962016 ], [ -110.44519123, 45.205461391 ], [ -110.438516853, 45.204350557 ], [ -110.427879957, 45.207286062 ], [ -110.422642291, 45.213159659 ], [ -110.411666392, 45.211134546 ], [ -110.40085526, 45.216811923 ], [ -110.395701729, 45.215519001 ], [ -110.39057217, 45.219832889 ], [ -110.390995997, 45.231306129 ], [ -110.382117501, 45.238537703 ], [ -110.374315759, 45.239131739 ], [ -110.370915356, 45.242211079 ], [ -110.37088876, 45.250908424 ], [ -110.36839091, 45.255567367 ], [ -110.354377062, 45.255162566 ], [ -110.337767858, 45.246303249 ], [ -110.337531441, 45.243144967 ], [ -110.334621794, 45.241707982 ], [ -110.333282009, 45.238875891 ], [ -110.335617495, 45.234528493 ], [ -110.331424493, 45.232468171 ], [ -110.324287643, 45.232196168 ], [ -110.325705283, 45.228460047 ], [ -110.308454455, 45.219704884 ], [ -110.309073237, 45.2155868 ], [ -110.306229422, 45.205756553 ], [ -110.295753581, 45.201001677 ], [ -110.290818009, 45.200585478 ], [ -110.287795828, 45.191906309 ], [ -110.276487014, 45.186022657 ], [ -110.270652046, 45.176825923 ], [ -110.26140679, 45.176070064 ], [ -110.250427281, 45.179803267 ], [ -110.243660272, 45.175689712 ], [ -110.243659515, 45.172468823 ], [ -110.235521857, 45.171403529 ], [ -110.233636922, 45.166318658 ], [ -110.223887172, 45.162228269 ], [ -110.218204075, 45.162780089 ], [ -110.214880592, 45.158835986 ], [ -110.214287807, 45.155287388 ], [ -110.207998031, 45.152956557 ], [ -110.203809892, 45.153872939 ], [ -110.198744838, 45.15121332 ], [ -110.18650712, 45.151388833 ], [ -110.183376833, 45.153391746 ], [ -110.188523434, 45.161075983 ], [ -110.187935492, 45.165129296 ], [ -110.187323554, 45.168227411 ], [ -110.1828053, 45.173309637 ], [ -110.184190194, 45.174605133 ], [ -110.180933849, 45.178197076 ], [ -110.180557301, 45.183706803 ], [ -110.175127423, 45.185818238 ], [ -110.174903162, 45.187161 ], [ -110.1780338, 45.189141848 ], [ -110.177528344, 45.192069981 ], [ -110.173600998, 45.195145911 ], [ -110.159633171, 45.199705731 ], [ -110.153735892, 45.202900213 ], [ -110.151336252, 45.206154527 ], [ -110.137539099, 45.206728291 ], [ -110.13260789, 45.210875342 ], [ -110.120997744, 45.215180327 ], [ -110.119244403, 45.218821666 ], [ -110.11436879, 45.217700126 ], [ -110.114997017, 45.214333245 ], [ -110.107155587, 45.206622241 ], [ -110.10254357, 45.197554068 ], [ -110.104886403, 45.191928082 ], [ -110.098230704, 45.183855718 ], [ -110.084067594, 45.184079529 ], [ -110.077565116, 45.188037164 ], [ -110.068603078, 45.181198479 ], [ -110.052145994, 45.174777313 ], [ -110.049818875, 45.171869168 ], [ -110.052416534, 45.169888527 ], [ -110.054310383, 45.159181665 ], [ -110.057668353, 45.157669464 ], [ -110.057509697, 45.155244884 ], [ -110.050220876, 45.155466409 ], [ -110.034631064, 45.150724337 ], [ -110.024923952, 45.152671582 ], [ -110.02259582, 45.148129642 ], [ -110.03072068, 45.140045776 ], [ -110.034588527, 45.141795042 ], [ -110.044625328, 45.1391381 ], [ -110.039424468, 45.129881205 ], [ -110.032638728, 45.123972195 ], [ -110.02616019, 45.122153333 ], [ -110.024228662, 45.123425463 ], [ -110.019618228, 45.113172588 ], [ -110.015909213, 45.10856316 ], [ -110.012995613, 45.10800109 ], [ -110.008304146, 45.103574577 ], [ -110.009476319, 45.099815973 ], [ -110.006205812, 45.096067836 ], [ -110.005707522, 45.092992553 ], [ -110.001664444, 45.091589397 ], [ -110.002368413, 45.089761711 ], [ -110.000148692, 45.08810123 ], [ -110.003811787, 45.083915403 ], [ -110.015885353, 45.077469587 ], [ -110.021027622, 45.077289342 ], [ -110.019385041, 45.072140817 ], [ -110.013375259, 45.063207752 ], [ -110.014161861, 45.060127683 ], [ -110.009953207, 45.056579861 ], [ -110.009836627, 45.053386016 ], [ -110.004890977, 45.050405349 ], [ -110.003565272, 45.047919861 ], [ -110.000125341, 45.045682903 ], [ -109.996761866, 45.046680018 ], [ -109.987619571, 45.044781163 ], [ -109.974326633, 45.047256029 ], [ -109.969452155, 45.046445233 ], [ -109.96081628, 45.053192292 ], [ -109.952589376, 45.056114129 ], [ -109.934938191, 45.045421317 ], [ -109.923007302, 45.047105591 ], [ -109.902954285, 45.043579948 ], [ -109.902712616, 45.038785784 ], [ -109.893047519, 45.035341771 ], [ -109.890810593, 45.032317223 ], [ -109.899632887, 45.015942322 ], [ -109.897660753, 45.012822337 ], [ -109.89238435, 45.010494773 ], [ -109.889959025, 45.004810833 ], [ -109.884112795, 45.003029956 ], [ -109.88317436, 45.000947672 ], [ -109.883433483, 44.997223888 ], [ -109.885686066, 44.995781186 ], [ -109.883530831, 44.992201347 ], [ -109.882980042, 44.984618335 ], [ -109.885096149, 44.97813077 ], [ -109.893012481, 44.976470405 ], [ -109.901520345, 44.97750894 ], [ -109.905075175, 44.970560092 ], [ -109.909784212, 44.968356113 ], [ -109.91290564, 44.963786528 ], [ -109.916148351, 44.962781661 ], [ -109.923799234, 44.966191275 ], [ -109.927713648, 44.960562335 ], [ -109.940224522, 44.958438891 ], [ -109.949434031, 44.950703239 ], [ -109.940199145, 44.936784053 ], [ -109.928617724, 44.934154067 ], [ -109.927340725, 44.93148833 ], [ -109.928921927, 44.928951656 ], [ -109.927536323, 44.912122756 ], [ -109.931958962, 44.90378868 ], [ -109.929108065, 44.897518197 ], [ -109.930226769, 44.890762328 ], [ -109.937599992, 44.881642762 ], [ -109.938233847, 44.878581639 ], [ -109.935992249, 44.87504575 ], [ -109.935470524, 44.870005969 ], [ -109.937743826, 44.86510036 ], [ -109.936328574, 44.862098526 ], [ -109.939924758, 44.855741208 ], [ -109.939447485, 44.851210987 ], [ -109.931697055, 44.843165635 ], [ -109.928385636, 44.836841276 ], [ -109.941159633, 44.830430828 ], [ -109.943317407, 44.827377346 ], [ -109.951728058, 44.823499046 ], [ -109.959150139, 44.816727319 ], [ -109.956950026, 44.814393661 ], [ -109.957329928, 44.81112956 ], [ -109.954226664, 44.804168268 ], [ -109.957804407, 44.80106881 ], [ -109.946116169, 44.796574558 ], [ -109.945296112, 44.794481387 ], [ -109.929267538, 44.791258167 ], [ -109.920354585, 44.783475254 ], [ -109.913738913, 44.772415239 ], [ -109.905946976, 44.76401053 ], [ -109.894246748, 44.758431394 ], [ -109.890125795, 44.75803861 ], [ -109.886606499, 44.754431724 ], [ -109.885145202, 44.750246024 ], [ -109.885833126, 44.747094364 ], [ -109.882889626, 44.743608246 ], [ -109.883032887, 44.739780578 ], [ -109.875831731, 44.737199718 ], [ -109.876251361, 44.735521927 ], [ -109.872428366, 44.73381794 ], [ -109.866478632, 44.734635653 ], [ -109.860804959, 44.724897443 ], [ -109.856378045, 44.722890212 ], [ -109.851255829, 44.725996306 ], [ -109.836316331, 44.724163673 ], [ -109.832134106, 44.716806548 ], [ -109.831914035, 44.713258733 ], [ -109.824811937, 44.709295498 ], [ -109.824256967, 44.707868405 ], [ -109.826968642, 44.705056899 ], [ -109.82643008, 44.700413844 ], [ -109.836725281, 44.694894907 ], [ -109.841714792, 44.68832732 ], [ -109.841956106, 44.684638022 ], [ -109.84755177, 44.681185115 ], [ -109.853846124, 44.679623555 ], [ -109.856037306, 44.68044689 ], [ -109.859534749, 44.678688609 ], [ -109.86349769, 44.672044283 ], [ -109.86852864, 44.670429823 ], [ -109.871993309, 44.666462263 ], [ -109.879306139, 44.652149819 ], [ -109.885346052, 44.653031754 ], [ -109.895097231, 44.649202511 ], [ -109.904271569, 44.648478049 ], [ -109.908717914, 44.642584576 ], [ -109.907955982, 44.637856873 ], [ -109.922102321, 44.635546322 ], [ -109.928182716, 44.630422 ], [ -109.939029138, 44.632442279 ], [ -109.954067462, 44.626990248 ], [ -109.967154829, 44.628775796 ], [ -109.97072474, 44.626922564 ], [ -109.975775469, 44.620516003 ], [ -109.978267437, 44.619853573 ], [ -109.98229104, 44.620575248 ], [ -109.986226026, 44.624179213 ], [ -109.992821982, 44.621602136 ], [ -109.999775577, 44.621916447 ], [ -110.00933492, 44.616160106 ], [ -110.01462331, 44.619525752 ], [ -110.015138112, 44.617600256 ], [ -110.017502019, 44.621223643 ], [ -110.02195796, 44.622900568 ], [ -110.024291153, 44.625308096 ], [ -110.024278984, 44.628083708 ], [ -110.026866225, 44.625100809 ], [ -110.024724299, 44.618535069 ], [ -110.031715859, 44.614896054 ], [ -110.033692111, 44.61209997 ], [ -110.032366206, 44.609902086 ], [ -110.033999782, 44.607599666 ], [ -110.050608135, 44.605683174 ], [ -110.062563093, 44.606988657 ], [ -110.064725565, 44.605587105 ], [ -110.064946373, 44.596743864 ], [ -110.069799328, 44.59132731 ], [ -110.068221603, 44.587454498 ], [ -110.073940589, 44.580039687 ], [ -110.079695217, 44.575487628 ], [ -110.093812715, 44.572570951 ], [ -110.09575347, 44.570548805 ], [ -110.111708997, 44.571089839 ], [ -110.112984293, 44.569083959 ], [ -110.121488438, 44.567979557 ], [ -110.126130367, 44.562591581 ], [ -110.131797999, 44.559323808 ], [ -110.13089586, 44.556054128 ], [ -110.134576024, 44.552828908 ], [ -110.15273029, 44.554247151 ], [ -110.159368188, 44.547650011 ], [ -110.162768363, 44.546371856 ], [ -110.167430097, 44.545738546 ], [ -110.170648333, 44.547550903 ], [ -110.172299421, 44.543426482 ], [ -110.169775516, 44.540554868 ], [ -110.168364166, 44.532125081 ], [ -110.157740626, 44.525438528 ], [ -110.154313576, 44.524790875 ], [ -110.15399908, 44.521540662 ], [ -110.152229991, 44.520456319 ], [ -110.147479433, 44.51998605 ], [ -110.147115636, 44.517918703 ], [ -110.141441786, 44.516085275 ], [ -110.143249065, 44.511116299 ], [ -110.145632567, 44.510537405 ], [ -110.146829458, 44.508275806 ], [ -110.145581774, 44.504543542 ], [ -110.146713699, 44.500413612 ], [ -110.14267378, 44.499161171 ], [ -110.143267441, 44.493999597 ], [ -110.140138305, 44.489529123 ], [ -110.12945359, 44.486651993 ], [ -110.129918106, 44.479679326 ], [ -110.122904338, 44.473406645 ], [ -110.123763783, 44.470782588 ], [ -110.131269686, 44.463655605 ], [ -110.128764399, 44.459720782 ], [ -110.134699159, 44.458091846 ], [ -110.135187376, 44.455686042 ], [ -110.140897315, 44.454047823 ], [ -110.14316856, 44.451639773 ], [ -110.142142413, 44.447784417 ], [ -110.143482011, 44.441517341 ], [ -110.133381654, 44.435131233 ], [ -110.131675795, 44.431545345 ], [ -110.133782426, 44.427597066 ], [ -110.128299536, 44.4172403 ], [ -110.122770861, 44.415515287 ], [ -110.108981051, 44.407099557 ], [ -110.102219505, 44.409453745 ], [ -110.089704209, 44.397725476 ], [ -110.078132723, 44.398850903 ], [ -110.073417983, 44.396873843 ], [ -110.072008683, 44.392033556 ], [ -110.069524807, 44.39006796 ], [ -110.069606037, 44.378692658 ], [ -110.067693746, 44.375835924 ], [ -110.07225698, 44.373753477 ], [ -110.069617077, 44.364622288 ], [ -110.073238392, 44.358531568 ], [ -110.07331654, 44.351778056 ], [ -110.07067938, 44.345102044 ], [ -110.07167102, 44.3419334 ], [ -110.062918463, 44.335700877 ], [ -110.062038326, 44.33234343 ], [ -110.041372913, 44.328829823 ], [ -110.03908867, 44.324712566 ], [ -110.025719389, 44.32012952 ], [ -110.022879969, 44.322773803 ], [ -110.012248444, 44.326865016 ], [ -109.992361641, 44.321651267 ], [ -109.983395518, 44.324242372 ], [ -109.973405437, 44.322419016 ], [ -109.96290291, 44.3232566 ], [ -109.961867684, 44.318924807 ], [ -109.957018985, 44.313265272 ], [ -109.960681124, 44.310701603 ], [ -109.957994194, 44.303313048 ], [ -109.955772114, 44.301866147 ], [ -109.958047028, 44.294759424 ], [ -109.960505823, 44.293304979 ], [ -109.956915242, 44.290691096 ], [ -109.946520412, 44.291909725 ], [ -109.937008653, 44.286115097 ], [ -109.9324148, 44.286474117 ], [ -109.926210416, 44.283499586 ], [ -109.921257009, 44.284112943 ], [ -109.917448397, 44.280432899 ], [ -109.917534144, 44.277158903 ], [ -109.907700699, 44.273206641 ], [ -109.900800416, 44.271917785 ], [ -109.890913654, 44.273414598 ], [ -109.882950618, 44.270186549 ], [ -109.879607476, 44.262531225 ], [ -109.873925078, 44.257803965 ], [ -109.860722543, 44.260278061 ], [ -109.85800048, 44.257560517 ], [ -109.852396664, 44.255919854 ], [ -109.846410633, 44.248904912 ], [ -109.832597899, 44.24324539 ], [ -109.827603288, 44.234369842 ], [ -109.820579892, 44.230091869 ], [ -109.81351219, 44.228772127 ], [ -109.813648224, 44.223861761 ], [ -109.795151913, 44.220899301 ], [ -109.792350689, 44.216769874 ], [ -109.78737725, 44.216542353 ], [ -109.783058141, 44.212903871 ], [ -109.780522118, 44.212635224 ], [ -109.78049745, 44.209356976 ], [ -109.775147814, 44.201228852 ], [ -109.7687055, 44.201356939 ], [ -109.771654663, 44.195541846 ], [ -109.76944319, 44.194536973 ], [ -109.769162891, 44.19002558 ], [ -109.766624375, 44.187431504 ], [ -109.77005353, 44.180002705 ], [ -109.765245119, 44.173694646 ], [ -109.764892997, 44.167758948 ], [ -109.761276137, 44.163732866 ], [ -109.756703538, 44.161843891 ], [ -109.754849583, 44.155320303 ], [ -109.75174529, 44.15362874 ], [ -109.755282891, 44.146733392 ], [ -109.754859037, 44.13943527 ], [ -109.752872413, 44.133160616 ], [ -109.748996133, 44.130800795 ], [ -109.750368998, 44.128210335 ], [ -109.756052487, 44.126258071 ], [ -109.76101472, 44.117038737 ], [ -109.764008971, 44.115400626 ], [ -109.767134741, 44.109398961 ], [ -109.767049119, 44.106634491 ], [ -109.764843781, 44.104130635 ], [ -109.766959544, 44.101462465 ], [ -109.766646343, 44.098753668 ], [ -109.762417743, 44.095954427 ], [ -109.764052861, 44.092792673 ], [ -109.755510596, 44.083804151 ], [ -109.743813886, 44.082940257 ], [ -109.739386996, 44.077514503 ], [ -109.733101262, 44.07508417 ], [ -109.734216157, 44.070220538 ], [ -109.732390701, 44.066887877 ], [ -109.722540039, 44.064221128 ], [ -109.7279685, 44.0608329 ], [ -109.730197186, 44.054282679 ], [ -109.724027995, 44.049112896 ], [ -109.723522312, 44.045994417 ], [ -109.725596251, 44.041880858 ], [ -109.737752878, 44.039755796 ], [ -109.738372969, 44.034928036 ], [ -109.737199286, 44.033602917 ], [ -109.738617657, 44.02937695 ], [ -109.74129413, 44.025550745 ], [ -109.749365519, 44.020643212 ], [ -109.754315516, 44.021374269 ], [ -109.759847025, 44.025529941 ], [ -109.786149037, 44.01869515 ], [ -109.788768387, 44.020330529 ], [ -109.790819862, 44.017023049 ], [ -109.789579617, 44.015862517 ], [ -109.790604866, 44.01427574 ], [ -109.804042458, 44.007954912 ], [ -109.806014159, 43.999884814 ], [ -109.808443398, 43.998572299 ], [ -109.810943008, 43.993265457 ], [ -109.819290138, 43.99006587 ], [ -109.823465138, 43.985726697 ], [ -109.835943446, 43.983215738 ], [ -109.839173406, 43.981056924 ], [ -109.838196947, 43.975306623 ], [ -109.835701358, 43.972319124 ], [ -109.838879688, 43.967622173 ], [ -109.842758177, 43.968101116 ], [ -109.848215079, 43.965370078 ], [ -109.848022826, 43.962238186 ], [ -109.849676166, 43.960104759 ], [ -109.854329028, 43.959968682 ], [ -109.884208008, 43.948413443 ], [ -109.922255125, 43.945809956 ], [ -109.927928547, 43.950246134 ], [ -109.933075778, 43.950756955 ], [ -109.935433632, 43.954984245 ], [ -109.940177625, 43.958575358 ], [ -109.943695053, 43.957665223 ], [ -109.955601645, 43.964101853 ], [ -109.958635034, 43.964363291 ], [ -109.967035357, 43.961161639 ], [ -109.972806468, 43.954945709 ], [ -109.981645696, 43.954578224 ], [ -109.98961641, 43.949108112 ] ] ] } }
]
}
